#aV2014 12 20  0  0  0.00000000     288 DD+AD WGS84 FIT  NGA
## 1823 518400.00000000   300.00000000 57011 0.0000000000000
+   32     1  2  3  4  5  6  7  8  9 10 11 12 13 14 15 16 17
+         18 19 20 21 22 23 24 25 26 27 28 29 30 31 32  0  0
+          0  0  0  0  0  0  0  0  0  0  0  0  0  0  0  0  0
+          0  0  0  0  0  0  0  0  0  0  0  0  0  0  0  0  0
+          0  0  0  0  0  0  0  0  0  0  0  0  0  0  0  0  0
++         2  2  2  2  2  2  2  2  2  2  2  2  2  2  2  2  2
++         2  2  2  2  2  2  2  2  2  2  2  2  2  2  2  0  0
++         0  0  0  0  0  0  0  0  0  0  0  0  0  0  0  0  0
++         0  0  0  0  0  0  0  0  0  0  0  0  0  0  0  0  0
++         0  0  0  0  0  0  0  0  0  0  0  0  0  0  0  0  0
%c cc cc ccc ccc cccc cccc cccc cccc ccccc ccccc ccccc ccccc
%c cc cc ccc ccc cccc cccc cccc cccc ccccc ccccc ccccc ccccc
%f  0.0000000  0.000000000  0.00000000000  0.000000000000000
%f  0.0000000  0.000000000  0.00000000000  0.000000000000000
%i    0    0    0    0      0      0      0      0         0
%i    0    0    0    0      0      0      0      0         0
/*      NGA, ST. LOUIS,MO.                                  
/*   EPHEMERIS COMPUTED FROM  1 DAYS OF DATA                
/*   EPOCHA SMOOTHER                                       
/* CCCCCCCCCCCCCCCCCCCCCCCCCCCCCCCCCCCCCCCCCCCCCCCCCCCCCCCCC
*  2014 12 20 16  5  0.00000000
P  1   4721.723401  14514.928105 -21792.783472    -10.972158                    
V  1 -26789.817131   6388.390759  -1393.783608      0.003419                    
P  2  18697.880473 -14296.465143  12151.214522    536.980528                    
V  2  15442.586443   -962.142628 -26061.384167      0.022211                    
P  3  10612.341032  21891.827066 -10600.423632     89.751360                    
V  3 -11154.060246  -7995.893449 -27712.588247      0.289833                    
P  4  -6924.845294  16668.322657 -19716.579566     -4.551713                    
V  4 -24124.992052   4632.218661  12853.086728     -0.004632                    
P  5   7376.124644 -14248.490451  21089.509721   -303.639834                    
V  5  19249.833074  18921.885068   6212.383426      0.048260                    
P  6  25877.457573  -5911.077948   -609.386064     31.262699                    
V  6    -64.287111   2920.289521 -31765.255695      0.082178                    
P  7  17547.963879   8856.346553  18125.850570    424.000815                    
V  7 -21894.048744   5952.385645  18040.239759      0.035203                    
P  8 -11057.627428  14021.501753  19617.435642     16.836668                    
V  8 -24599.861237   1594.816932 -15777.434650      0.001324                    
P  9  10033.605095  14812.333788  19624.579321    -32.411161                    
V  9  -8142.278357  23600.348634 -13656.300800     -0.096850                    
P 10  19928.623368   3066.394149  17123.487209   -155.072624                    
V 10  13872.921089  17658.252241 -18472.226684     -0.018225                    
P 11  -1082.221373  18956.975425 -19045.915875   -544.989821                    
V 11 -20828.916949  10974.095440  12607.702898     -0.027229                    
P 12  -7574.928379 -21914.004484 -13228.414622    255.037941                    
V 12  11914.359468  11554.803583 -25908.904685      0.028684                    
P 13  15821.153405 -18186.092616  11242.348367    -71.303504                    
V 13  -3782.894721  14022.273640  27472.491355     -0.033247                    
P 14 -16375.758885   3886.044516 -20281.080777    104.579184                    
V 14   8323.477019 -24955.795149 -11512.575938     -0.035794                    
P 15   1228.575025 -25520.874205  -6695.787639   -221.464456                    
V 15   5638.784499  -7374.724339  29790.903105     -0.022642                    
P 16  -7696.390811  13030.538172  21722.144741   -171.676783                    
V 16 -18231.223024 -20854.682649   6387.811988      0.030148                    
P 17  15827.624124  -2126.603075 -20901.404628   -145.066380                    
V 17  -8023.699753  26008.844069  -8828.993142     -0.023289                    
P 18 -21030.762377 -15304.353757  -5667.044654    366.469423                    
V 18  -2861.127872  -8070.212711  29621.022700      0.026351                    
P 19  -8013.339067  24942.735905  -2625.376097   -493.238619                    
V 19  -3904.228614   1851.477820  31986.273193     -0.016009                    
P 20  14242.396327  21123.825372  -7933.398378    269.457710                    
V 20  -9622.616191  -4066.102561 -28669.719430      0.042691                    
P 21 -22209.707838  -5424.801291  14517.846283   -401.298406                    
V 21  16125.908334  -6476.236930  22925.189778     -0.021506                    
P 22 -20745.759754  -3841.411742 -16017.548205    298.779449                    
V 22 -12714.135911 -16647.024437  20020.787906      0.036629                    
P 23   3096.124960  22649.781404  13284.081224    -75.836668                    
V 23  -7492.649161  15338.590264 -25067.680631     -0.027245                    
P 24  -1062.817285 -15480.205879 -21566.523232    -40.396309                    
V 24  26601.673871  -6449.801678   3448.903880     -0.006920                    
P 25 -17472.363914 -20039.331483  -1789.535760      8.234614                    
V 25   3054.933512     74.575065 -31914.183160     -0.021650                    
P 26  12287.625050 -22887.605816   4092.981321   -163.698557                    
V 26    221.184649   6631.819357  31649.475031     -0.132392                    
P 27 -12452.883523  21817.388454   8488.718017     38.436655                    
V 27    605.561653 -11082.700730  29410.769320      0.027153                    
P 28  20091.807204  10276.352958 -13472.799304    406.646217                    
V 28  10280.416808  14954.731175  25458.504873      0.027301                    
P 29  -7324.409868 -17487.329480  18644.786615    580.776613                    
V 29   9039.498406 -21805.834587 -16892.136905      0.024322                    
P 30  24818.135155   2501.539377   9192.826554    -85.407256                    
V 30 -11088.456638   4463.972296  28676.308347     -0.009966                    
P 31 -25753.898412   6908.736775   2193.937020    327.040179                    
V 31  -2931.981166  -1444.248337 -31725.392899     -0.006910                    
P 32  -1129.072109  19508.831515 -18221.696326   -266.448752                    
V 32 -15553.364467 -16997.778058 -16686.635830      0.087820                    
EOF
